{
    "links": {
        "self": "http://www.neowsapp.com/rest/v1/neo/3837790?api_key=iIulBulltgU6a56xZRHN4H3l9WmuAYTsLGpBGhQ2"
    },
    "id": "3837790",
    "neo_reference_id": "3837790",
    "name": "(2019 AX8)",
    "designation": "2019 AX8",
    "nasa_jpl_url": "http://ssd.jpl.nasa.gov/sbdb.cgi?sstr=3837790",
    "absolute_magnitude_h": 24.9,
    "estimated_diameter": {
        "kilometers": {
            "estimated_diameter_min": 0.0278326768,
            "estimated_diameter_max": 0.0622357573
        },
        "meters": {
            "estimated_diameter_min": 27.8326768072,
            "estimated_diameter_max": 62.2357573367
        },
        "miles": {
            "estimated_diameter_min": 0.0172944182,
            "estimated_diameter_max": 0.0386714948
        },
        "feet": {
            "estimated_diameter_min": 91.3145593761,
            "estimated_diameter_max": 204.1855621004
        }
    },
    "is_potentially_hazardous_asteroid": false,
    "close_approach_data": [
        {
            "close_approach_date": "2019-01-22",
            "close_approach_date_full": "2019-Jan-22 03:34",
            "epoch_date_close_approach": 1548128040000,
            "relative_velocity": {
                "kilometers_per_second": "16.1591572941",
                "kilometers_per_hour": "58172.9662586092",
                "miles_per_hour": "36146.4189510786"
            },
            "miss_distance": {
                "astronomical": "0.0461659435",
                "lunar": "17.9585520215",
                "kilometers": "6906326.814140345",
                "miles": "4291392.487792961"
            },
            "orbiting_body": "Earth"
        }
    ],
    "orbital_data": {
        "orbit_id": "2",
        "orbit_determination_date": "2019-01-28 07:45:36",
        "first_observation_date": "2019-01-08",
        "last_observation_date": "2019-01-15",
        "data_arc_in_days": 7,
        "observations_used": 12,
        "orbit_uncertainty": "9",
        "minimum_orbit_intersection": ".0187705",
        "jupiter_tisserand_invariant": "4.752",
        "epoch_osculation": "2458496.5",
        "eccentricity": ".4521670286107766",
        "semi_major_axis": "1.343578228400315",
        "inclination": "14.06738588526573",
        "ascending_node_longitude": "299.9773561067041",
        "orbital_period": "568.8435834637737",
        "perihelion_distance": ".7360564531584129",
        "perihelion_argument": "264.2466722982581",
        "aphelion_distance": "1.951100003642216",
        "perihelion_time": "2458558.581743723613",
        "mean_anomaly": "320.7107676166238",
        "mean_motion": ".6328629002157431",
        "equinox": "J2000",
        "orbit_class": {
            "orbit_class_type": "APO",
            "orbit_class_description": "Near-Earth asteroid orbits which cross the Earth’s orbit similar to that of 1862 Apollo",
            "orbit_class_range": "a (semi-major axis) > 1.0 AU; q (perihelion) < 1.017 AU"
        }
    },
    "is_sentry_object": false
}